{
  "norad_id": 68538,
  "name": "ARTEMIS 2",
  "history": [
    {
      "epoch": "2026-04-01T22:43:20.999712Z",
      "apogee_km": 2222.9892791962984,
      "perigee_km": 24.528658012853157,
      "latitude_deg": 28.18417662957649,
      "longitude_deg": -66.24783213042623,
      "height_km": 151.93288342825426,
      "semi_major_axis_km": 7501.8959686045755,
      "eccentricity": 0.146527,
      "inclination_deg": 28.5261,
      "raan_deg": 3.4072,
      "arg_perigee_deg": 67.9232,
      "mean_anomaly_deg": 24.0215,
      "mean_motion_rev_day": 13.3612228
    }
  ]
}